STARLINK-37036          
1 68077U 26042J   26072.91668981 -.01378178  00000+0 -49544-2 0  9991
2 68077  53.1593 173.6356 0000795  71.5949 181.9308 15.90624450  2731
STARLINK-36973          
1 68078U 26042K   26072.91668981 -.01581369  69718-3 -49565-2 0  9998
2 68078  53.1594 173.6227 0000706  73.8731 185.8296 15.90862124  2737
STARLINK-37063          
1 68079U 26042L   26072.91668981 -.01563007  68168-3 -49267-2 0  9995
2 68079  53.1589 173.6296 0000856  70.4665 185.9359 15.90748788  2733
STARLINK-37051          
1 68080U 26042M   26072.91668981 -.01624388  73411-3 -50285-2 0  9996
2 68080  53.1590 173.6098 0000772  67.3187 198.6089 15.91111290  2732
STARLINK-37066          
1 68081U 26042N   26072.91668981 -.01598070  71154-3 -49796-2 0  9992
2 68081  53.1596 173.6163 0000862  68.6777 194.2378 15.90979185  2738
STARLINK-37054          
1 68082U 26042P   26072.91668981 -.01620299  73159-3 -49842-2 0  9991
2 68082  53.1591 173.6040 0001018  74.9451 193.7790 15.91233345  2735
STARLINK-37065          
1 68083U 26042Q   26072.91668981 -.01635607  74521-3 -50003-2 0  9996
2 68083  53.1594 173.5978 0000855  73.3133 198.4400 15.91355985  2731
STARLINK-37037          
1 68084U 26042R   26072.91668981 -.01649407  75763-3 -50137-2 0  9997
2 68084  53.1589 173.5912 0000731  69.8603 205.0721 15.91469392  2738
STARLINK-37068          
1 68085U 26042S   26072.91668981 -.01626513  73930-3 -49123-2 0  9998
2 68085  53.1588 173.5860 0000942  68.9997 208.4621 15.91590731  2738
STARLINK-37067          
1 68086U 26042T   26072.91668981 -.01666028  77350-3 -50030-2 0  9993
2 68086  53.1589 173.5790 0000914  67.9694 212.8604 15.91707477  2731
STARLINK-37062          
1 68087U 26042U   26072.91668981 -.01673839  78106-3 -49970-2 0  9993
2 68087  53.1590 173.5727 0000727  67.5191 216.3274 15.91822518  2730
STARLINK-37059          
1 68088U 26042V   26072.91668981 -.01687701  79385-3 -50105-2 0  9999
2 68088  53.1589 173.5659 0000906  65.1021 222.0006 15.91931763  2738
