CCSDS_OMM_VERS = 2.0
CREATION_DATE  = 
ORIGINATOR     = 

OBJECT_NAME    = STARLINK-37036
OBJECT_ID      = 2026-042J
CENTER_NAME    = EARTH
REF_FRAME      = TEME
TIME_SYSTEM    = UTC
MEAN_ELEMENT_THEORY = SGP/SGP4

EPOCH          = 2026-03-13T22:00:01.999584
MEAN_MOTION    = 15.90624450
ECCENTRICITY   = .00007957
INCLINATION    = 53.1593
RA_OF_ASC_NODE = 173.6356
ARG_OF_PERICENTER = 71.5949
MEAN_ANOMALY   = 181.9308

EPHEMERIS_TYPE = 0
CLASSIFICATION_TYPE = U
NORAD_CAT_ID   = 68077
ELEMENT_SET_NO = 999
REV_AT_EPOCH   = 273
BSTAR          = -.49543684E-2
MEAN_MOTION_DOT = -.1378178E-1
MEAN_MOTION_DDOT = 0

CCSDS_OMM_VERS = 2.0
CREATION_DATE  = 
ORIGINATOR     = 

OBJECT_NAME    = STARLINK-36973
OBJECT_ID      = 2026-042K
CENTER_NAME    = EARTH
REF_FRAME      = TEME
TIME_SYSTEM    = UTC
MEAN_ELEMENT_THEORY = SGP/SGP4

EPOCH          = 2026-03-13T22:00:01.999584
MEAN_MOTION    = 15.90862124
ECCENTRICITY   = .00007065
INCLINATION    = 53.1594
RA_OF_ASC_NODE = 173.6227
ARG_OF_PERICENTER = 73.8731
MEAN_ANOMALY   = 185.8296

EPHEMERIS_TYPE = 0
CLASSIFICATION_TYPE = U
NORAD_CAT_ID   = 68078
ELEMENT_SET_NO = 999
REV_AT_EPOCH   = 273
BSTAR          = -.49565361E-2
MEAN_MOTION_DOT = -.1581369E-1
MEAN_MOTION_DDOT = .69718046E-3

CCSDS_OMM_VERS = 2.0
CREATION_DATE  = 
ORIGINATOR     = 

OBJECT_NAME    = STARLINK-37063
OBJECT_ID      = 2026-042L
CENTER_NAME    = EARTH
REF_FRAME      = TEME
TIME_SYSTEM    = UTC
MEAN_ELEMENT_THEORY = SGP/SGP4

EPOCH          = 2026-03-13T22:00:01.999584
MEAN_MOTION    = 15.90748788
ECCENTRICITY   = .00008561
INCLINATION    = 53.1589
RA_OF_ASC_NODE = 173.6296
ARG_OF_PERICENTER = 70.4665
MEAN_ANOMALY   = 185.9359

EPHEMERIS_TYPE = 0
CLASSIFICATION_TYPE = U
NORAD_CAT_ID   = 68079
ELEMENT_SET_NO = 999
REV_AT_EPOCH   = 273
BSTAR          = -.49266753E-2
MEAN_MOTION_DOT = -.1563007E-1
MEAN_MOTION_DDOT = .68167869E-3

CCSDS_OMM_VERS = 2.0
CREATION_DATE  = 
ORIGINATOR     = 

OBJECT_NAME    = STARLINK-37051
OBJECT_ID      = 2026-042M
CENTER_NAME    = EARTH
REF_FRAME      = TEME
TIME_SYSTEM    = UTC
MEAN_ELEMENT_THEORY = SGP/SGP4

EPOCH          = 2026-03-13T22:00:01.999584
MEAN_MOTION    = 15.91111290
ECCENTRICITY   = .00007722
INCLINATION    = 53.1590
RA_OF_ASC_NODE = 173.6098
ARG_OF_PERICENTER = 67.3187
MEAN_ANOMALY   = 198.6089

EPHEMERIS_TYPE = 0
CLASSIFICATION_TYPE = U
NORAD_CAT_ID   = 68080
ELEMENT_SET_NO = 999
REV_AT_EPOCH   = 273
BSTAR          = -.50284775E-2
MEAN_MOTION_DOT = -.1624388E-1
MEAN_MOTION_DDOT = .73411286E-3

CCSDS_OMM_VERS = 2.0
CREATION_DATE  = 
ORIGINATOR     = 

OBJECT_NAME    = STARLINK-37066
OBJECT_ID      = 2026-042N
CENTER_NAME    = EARTH
REF_FRAME      = TEME
TIME_SYSTEM    = UTC
MEAN_ELEMENT_THEORY = SGP/SGP4

EPOCH          = 2026-03-13T22:00:01.999584
MEAN_MOTION    = 15.90979185
ECCENTRICITY   = .00008624
INCLINATION    = 53.1596
RA_OF_ASC_NODE = 173.6163
ARG_OF_PERICENTER = 68.6777
MEAN_ANOMALY   = 194.2378

EPHEMERIS_TYPE = 0
CLASSIFICATION_TYPE = U
NORAD_CAT_ID   = 68081
ELEMENT_SET_NO = 999
REV_AT_EPOCH   = 273
BSTAR          = -.49795585E-2
MEAN_MOTION_DOT = -.159807E-1
MEAN_MOTION_DDOT = .71153745E-3

CCSDS_OMM_VERS = 2.0
CREATION_DATE  = 
ORIGINATOR     = 

OBJECT_NAME    = STARLINK-37054
OBJECT_ID      = 2026-042P
CENTER_NAME    = EARTH
REF_FRAME      = TEME
TIME_SYSTEM    = UTC
MEAN_ELEMENT_THEORY = SGP/SGP4

EPOCH          = 2026-03-13T22:00:01.999584
MEAN_MOTION    = 15.91233345
ECCENTRICITY   = .00010184
INCLINATION    = 53.1591
RA_OF_ASC_NODE = 173.6040
ARG_OF_PERICENTER = 74.9451
MEAN_ANOMALY   = 193.7790

EPHEMERIS_TYPE = 0
CLASSIFICATION_TYPE = U
NORAD_CAT_ID   = 68082
ELEMENT_SET_NO = 999
REV_AT_EPOCH   = 273
BSTAR          = -.49841943E-2
MEAN_MOTION_DOT = -.1620299E-1
MEAN_MOTION_DDOT = .73158925E-3

CCSDS_OMM_VERS = 2.0
CREATION_DATE  = 
ORIGINATOR     = 

OBJECT_NAME    = STARLINK-37065
OBJECT_ID      = 2026-042Q
CENTER_NAME    = EARTH
REF_FRAME      = TEME
TIME_SYSTEM    = UTC
MEAN_ELEMENT_THEORY = SGP/SGP4

EPOCH          = 2026-03-13T22:00:01.999584
MEAN_MOTION    = 15.91355985
ECCENTRICITY   = .00008559
INCLINATION    = 53.1594
RA_OF_ASC_NODE = 173.5978
ARG_OF_PERICENTER = 73.3133
MEAN_ANOMALY   = 198.4400

EPHEMERIS_TYPE = 0
CLASSIFICATION_TYPE = U
NORAD_CAT_ID   = 68083
ELEMENT_SET_NO = 999
REV_AT_EPOCH   = 273
BSTAR          = -.50003299E-2
MEAN_MOTION_DOT = -.1635607E-1
MEAN_MOTION_DDOT = .74520713E-3

CCSDS_OMM_VERS = 2.0
CREATION_DATE  = 
ORIGINATOR     = 

OBJECT_NAME    = STARLINK-37037
OBJECT_ID      = 2026-042R
CENTER_NAME    = EARTH
REF_FRAME      = TEME
TIME_SYSTEM    = UTC
MEAN_ELEMENT_THEORY = SGP/SGP4

EPOCH          = 2026-03-13T22:00:01.999584
MEAN_MOTION    = 15.91469392
ECCENTRICITY   = .00007313
INCLINATION    = 53.1589
RA_OF_ASC_NODE = 173.5912
ARG_OF_PERICENTER = 69.8603
MEAN_ANOMALY   = 205.0721

EPHEMERIS_TYPE = 0
CLASSIFICATION_TYPE = U
NORAD_CAT_ID   = 68084
ELEMENT_SET_NO = 999
REV_AT_EPOCH   = 273
BSTAR          = -.50137443E-2
MEAN_MOTION_DOT = -.1649407E-1
MEAN_MOTION_DDOT = .75762701E-3

CCSDS_OMM_VERS = 2.0
CREATION_DATE  = 
ORIGINATOR     = 

OBJECT_NAME    = STARLINK-37068
OBJECT_ID      = 2026-042S
CENTER_NAME    = EARTH
REF_FRAME      = TEME
TIME_SYSTEM    = UTC
MEAN_ELEMENT_THEORY = SGP/SGP4

EPOCH          = 2026-03-13T22:00:01.999584
MEAN_MOTION    = 15.91590731
ECCENTRICITY   = .00009426
INCLINATION    = 53.1588
RA_OF_ASC_NODE = 173.5860
ARG_OF_PERICENTER = 68.9997
MEAN_ANOMALY   = 208.4621

EPHEMERIS_TYPE = 0
CLASSIFICATION_TYPE = U
NORAD_CAT_ID   = 68085
ELEMENT_SET_NO = 999
REV_AT_EPOCH   = 273
BSTAR          = -.4912308E-2
MEAN_MOTION_DOT = -.1626513E-1
MEAN_MOTION_DDOT = .73929914E-3

CCSDS_OMM_VERS = 2.0
CREATION_DATE  = 
ORIGINATOR     = 

OBJECT_NAME    = STARLINK-37067
OBJECT_ID      = 2026-042T
CENTER_NAME    = EARTH
REF_FRAME      = TEME
TIME_SYSTEM    = UTC
MEAN_ELEMENT_THEORY = SGP/SGP4

EPOCH          = 2026-03-13T22:00:01.999584
MEAN_MOTION    = 15.91707477
ECCENTRICITY   = .00009143
INCLINATION    = 53.1589
RA_OF_ASC_NODE = 173.5790
ARG_OF_PERICENTER = 67.9694
MEAN_ANOMALY   = 212.8604

EPHEMERIS_TYPE = 0
CLASSIFICATION_TYPE = U
NORAD_CAT_ID   = 68086
ELEMENT_SET_NO = 999
REV_AT_EPOCH   = 273
BSTAR          = -.50030002E-2
MEAN_MOTION_DOT = -.1666028E-1
MEAN_MOTION_DDOT = .77350366E-3

CCSDS_OMM_VERS = 2.0
CREATION_DATE  = 
ORIGINATOR     = 

OBJECT_NAME    = STARLINK-37062
OBJECT_ID      = 2026-042U
CENTER_NAME    = EARTH
REF_FRAME      = TEME
TIME_SYSTEM    = UTC
MEAN_ELEMENT_THEORY = SGP/SGP4

EPOCH          = 2026-03-13T22:00:01.999584
MEAN_MOTION    = 15.91822518
ECCENTRICITY   = .00007275
INCLINATION    = 53.1590
RA_OF_ASC_NODE = 173.5727
ARG_OF_PERICENTER = 67.5191
MEAN_ANOMALY   = 216.3274

EPHEMERIS_TYPE = 0
CLASSIFICATION_TYPE = U
NORAD_CAT_ID   = 68087
ELEMENT_SET_NO = 999
REV_AT_EPOCH   = 273
BSTAR          = -.49970188E-2
MEAN_MOTION_DOT = -.1673839E-1
MEAN_MOTION_DDOT = .78105996E-3

CCSDS_OMM_VERS = 2.0
CREATION_DATE  = 
ORIGINATOR     = 

OBJECT_NAME    = STARLINK-37059
OBJECT_ID      = 2026-042V
CENTER_NAME    = EARTH
REF_FRAME      = TEME
TIME_SYSTEM    = UTC
MEAN_ELEMENT_THEORY = SGP/SGP4

EPOCH          = 2026-03-13T22:00:01.999584
MEAN_MOTION    = 15.91931763
ECCENTRICITY   = .00009069
INCLINATION    = 53.1589
RA_OF_ASC_NODE = 173.5659
ARG_OF_PERICENTER = 65.1021
MEAN_ANOMALY   = 222.0006

EPHEMERIS_TYPE = 0
CLASSIFICATION_TYPE = U
NORAD_CAT_ID   = 68088
ELEMENT_SET_NO = 999
REV_AT_EPOCH   = 273
BSTAR          = -.50104588E-2
MEAN_MOTION_DOT = -.1687701E-1
MEAN_MOTION_DDOT = .79384648E-3

